{"fetched_at":"2026-07-14T06:34:21.837Z","source":"https://celestrak.org/NORAD/elements/gp.php?GROUP=oneweb&FORMAT=JSON","constellation":"oneweb","records":[{"OBJECT_NAME":"ONEWEB-0435","OBJECT_ID":"2022-012L","EPOCH":"2026-07-13T12:55:05.193984","CLASSIFICATION_TYPE":"U","MEAN_MOTION":13.10375642,"ECCENTRICITY":0.0001859,"INCLINATION":87.8813,"RA_OF_ASC_NODE":31.0252,"ARG_OF_PERICENTER":99.9649,"MEAN_ANOMALY":260.1688,"EPHEMERIS_TYPE":0,"NORAD_CAT_ID":51632,"ELEMENT_SET_NO":999,"REV_AT_EPOCH":21276,"BSTAR":0.0017912,"MEAN_MOTION_DOT":0.00000638,"MEAN_MOTION_DDOT":0},{"OBJECT_NAME":"ONEWEB-0436","OBJECT_ID":"2022-012M","EPOCH":"2026-07-13T20:46:45.316992","CLASSIFICATION_TYPE":"U","MEAN_MOTION":13.17647317,"ECCENTRICITY":0.0001922,"INCLINATION":87.9151,"RA_OF_ASC_NODE":0.5396,"ARG_OF_PERICENTER":99.0442,"MEAN_ANOMALY":261.0907,"EPHEMERIS_TYPE":0,"NORAD_CAT_ID":51633,"ELEMENT_SET_NO":999,"REV_AT_EPOCH":21719,"BSTAR":-0.000068885,"MEAN_MOTION_DOT":-1.4e-7,"MEAN_MOTION_DDOT":0},{"OBJECT_NAME":"ONEWEB-0438","OBJECT_ID":"2022-012N","EPOCH":"2026-07-13T14:23:01.370688","CLASSIFICATION_TYPE":"U","MEAN_MOTION":13.10378237,"ECCENTRICITY":0.0001855,"INCLINATION":87.8814,"RA_OF_ASC_NODE":31.017,"ARG_OF_PERICENTER":78.8814,"MEAN_ANOMALY":281.2522,"EPHEMERIS_TYPE":0,"NORAD_CAT_ID":51634,"ELEMENT_SET_NO":999,"REV_AT_EPOCH":21280,"BSTAR":0.0011286,"MEAN_MOTION_DOT":0.00000407,"MEAN_MOTION_DDOT":0},{"OBJECT_NAME":"ONEWEB-0439","OBJECT_ID":"2022-012P","EPOCH":"2026-07-13T14:27:55.725120","CLASSIFICATION_TYPE":"U","MEAN_MOTION":13.10376216,"ECCENTRICITY":0.0001703,"INCLINATION":87.8816,"RA_OF_ASC_NODE":31.0027,"ARG_OF_PERICENTER":83.9578,"MEAN_ANOMALY":276.1743,"EPHEMERIS_TYPE":0,"NORAD_CAT_ID":51635,"ELEMENT_SET_NO":999,"REV_AT_EPOCH":21278,"BSTAR":0.0012568,"MEAN_MOTION_DOT":0.00000451,"MEAN_MOTION_DDOT":0},{"OBJECT_NAME":"ONEWEB-0442","OBJECT_ID":"2022-012Q","EPOCH":"2026-07-13T20:35:50.519040","CLASSIFICATION_TYPE":"U","MEAN_MOTION":13.17650819,"ECCENTRICITY":0.0001787,"INCLINATION":87.9143,"RA_OF_ASC_NODE":0.5715,"ARG_OF_PERICENTER":73.0423,"MEAN_ANOMALY":287.0905,"EPHEMERIS_TYPE":0,"NORAD_CAT_ID":51636,"ELEMENT_SET_NO":999,"REV_AT_EPOCH":21718,"BSTAR":-0.000084381,"MEAN_MOTION_DOT":-2e-7,"MEAN_MOTION_DDOT":0},{"OBJECT_NAME":"ONEWEB-0443","OBJECT_ID":"2022-012R","EPOCH":"2026-07-13T11:57:01.289376","CLASSIFICATION_TYPE":"U","MEAN_MOTION":13.17648248,"ECCENTRICITY":0.00014907,"INCLINATION":87.9141,"RA_OF_ASC_NODE":0.6443,"ARG_OF_PERICENTER":94.0892,"MEAN_ANOMALY":266.041,"EPHEMERIS_TYPE":0,"NORAD_CAT_ID":51637,"ELEMENT_SET_NO":999,"REV_AT_EPOCH":21718,"BSTAR":-0.00041697987,"MEAN_MOTION_DOT":-0.00000149,"MEAN_MOTION_DDOT":0},{"OBJECT_NAME":"ONEWEB-0444","OBJECT_ID":"2022-012S","EPOCH":"2026-07-13T12:23:17.420640","CLASSIFICATION_TYPE":"U","MEAN_MOTION":13.10378389,"ECCENTRICITY":0.00016,"INCLINATION":87.882,"RA_OF_ASC_NODE":31.0193,"ARG_OF_PERICENTER":88.4665,"MEAN_ANOMALY":271.6646,"EPHEMERIS_TYPE":0,"NORAD_CAT_ID":51638,"ELEMENT_SET_NO":999,"REV_AT_EPOCH":21278,"BSTAR":-0.00019623,"MEAN_MOTION_DOT":-5.6e-7,"MEAN_MOTION_DDOT":0},{"OBJECT_NAME":"ONEWEB-0445","OBJECT_ID":"2022-012T","EPOCH":"2026-07-13T14:42:34.979040","CLASSIFICATION_TYPE":"U","MEAN_MOTION":13.10376217,"ECCENTRICITY":0.000192,"INCLINATION":87.8824,"RA_OF_ASC_NODE":30.9899,"ARG_OF_PERICENTER":85.7714,"MEAN_ANOMALY":274.3632,"EPHEMERIS_TYPE":0,"NORAD_CAT_ID":51639,"ELEMENT_SET_NO":999,"REV_AT_EPOCH":21280,"BSTAR":0.0017592,"MEAN_MOTION_DOT":0.00000627,"MEAN_MOTION_DDOT":0},{"OBJECT_NAME":"ONEWEB-0446","OBJECT_ID":"2022-012U","EPOCH":"2026-07-13T12:20:49.820928","CLASSIFICATION_TYPE":"U","MEAN_MOTION":13.1038616,"ECCENTRICITY":0.00022915,"INCLINATION":87.8814,"RA_OF_ASC_NODE":31.0362,"ARG_OF_PERICENTER":88.9531,"MEAN_ANOMALY":271.1859,"EPHEMERIS_TYPE":0,"NORAD_CAT_ID":51640,"ELEMENT_SET_NO":999,"REV_AT_EPOCH":21277,"BSTAR":-0.006370867,"MEAN_MOTION_DOT":-0.00002211,"MEAN_MOTION_DDOT":0},{"OBJECT_NAME":"ONEWEB-0448","OBJECT_ID":"2022-012V","EPOCH":"2026-07-13T14:18:08.123904","CLASSIFICATION_TYPE":"U","MEAN_MOTION":13.10378705,"ECCENTRICITY":0.000178,"INCLINATION":87.8816,"RA_OF_ASC_NODE":31.0165,"ARG_OF_PERICENTER":86.6193,"MEAN_ANOMALY":273.5138,"EPHEMERIS_TYPE":0,"NORAD_CAT_ID":51641,"ELEMENT_SET_NO":999,"REV_AT_EPOCH":21275,"BSTAR":0.00044203,"MEAN_MOTION_DOT":0.00000167,"MEAN_MOTION_DDOT":0},{"OBJECT_NAME":"ONEWEB-0449","OBJECT_ID":"2022-012W","EPOCH":"2026-07-13T14:25:28.019136","CLASSIFICATION_TYPE":"U","MEAN_MOTION":13.10375932,"ECCENTRICITY":0.0001918,"INCLINATION":87.8821,"RA_OF_ASC_NODE":31.0024,"ARG_OF_PERICENTER":68.1266,"MEAN_ANOMALY":292.0065,"EPHEMERIS_TYPE":0,"NORAD_CAT_ID":51642,"ELEMENT_SET_NO":999,"REV_AT_EPOCH":21276,"BSTAR":0.0012821,"MEAN_MOTION_DOT":0.0000046,"MEAN_MOTION_DDOT":0},{"OBJECT_NAME":"ONEWEB-0451","OBJECT_ID":"2022-012X","EPOCH":"2026-07-13T20:41:53.780064","CLASSIFICATION_TYPE":"U","MEAN_MOTION":13.17651049,"ECCENTRICITY":0.0001727,"INCLINATION":87.9157,"RA_OF_ASC_NODE":0.5387,"ARG_OF_PERICENTER":86.0525,"MEAN_ANOMALY":274.0804,"EPHEMERIS_TYPE":0,"NORAD_CAT_ID":51643,"ELEMENT_SET_NO":999,"REV_AT_EPOCH":21717,"BSTAR":0.000009236,"MEAN_MOTION_DOT":1.6e-7,"MEAN_MOTION_DDOT":0},{"OBJECT_NAME":"ONEWEB-0452","OBJECT_ID":"2022-012Y","EPOCH":"2026-07-13T20:39:27.978336","CLASSIFICATION_TYPE":"U","MEAN_MOTION":13.17647167,"ECCENTRICITY":0.000157,"INCLINATION":87.9142,"RA_OF_ASC_NODE":0.5729,"ARG_OF_PERICENTER":89.0484,"MEAN_ANOMALY":271.0828,"EPHEMERIS_TYPE":0,"NORAD_CAT_ID":51644,"ELEMENT_SET_NO":999,"REV_AT_EPOCH":21718,"BSTAR":-0.00013006,"MEAN_MOTION_DOT":-3.8e-7,"MEAN_MOTION_DDOT":0},{"OBJECT_NAME":"ONEWEB-0456","OBJECT_ID":"2022-012AA","EPOCH":"2026-07-13T12:47:43.059264","CLASSIFICATION_TYPE":"U","MEAN_MOTION":13.10372852,"ECCENTRICITY":0.0001761,"INCLINATION":87.8827,"RA_OF_ASC_NODE":31.0047,"ARG_OF_PERICENTER":91.4542,"MEAN_ANOMALY":268.6787,"EPHEMERIS_TYPE":0,"NORAD_CAT_ID":51646,"ELEMENT_SET_NO":999,"REV_AT_EPOCH":21279,"BSTAR":0.0019813,"MEAN_MOTION_DOT":0.00000704,"MEAN_MOTION_DDOT":0},{"OBJECT_NAME":"ONEWEB-0457","OBJECT_ID":"2022-012AB","EPOCH":"2026-07-13T12:15:45.308448","CLASSIFICATION_TYPE":"U","MEAN_MOTION":13.10378921,"ECCENTRICITY":0.00021062,"INCLINATION":87.8817,"RA_OF_ASC_NODE":31.0251,"ARG_OF_PERICENTER":78.1122,"MEAN_ANOMALY":282.0242,"EPHEMERIS_TYPE":0,"NORAD_CAT_ID":51647,"ELEMENT_SET_NO":999,"REV_AT_EPOCH":21279,"BSTAR":-0.0007643885,"MEAN_MOTION_DOT":-0.00000254,"MEAN_MOTION_DDOT":0},{"OBJECT_NAME":"ONEWEB-0458","OBJECT_ID":"2022-012AC","EPOCH":"2026-07-13T14:36:28.415808","CLASSIFICATION_TYPE":"U","MEAN_MOTION":13.10373723,"ECCENTRICITY":0.0001616,"INCLINATION":87.8818,"RA_OF_ASC_NODE":30.9937,"ARG_OF_PERICENTER":85.6094,"MEAN_ANOMALY":274.5218,"EPHEMERIS_TYPE":0,"NORAD_CAT_ID":51648,"ELEMENT_SET_NO":999,"REV_AT_EPOCH":21276,"BSTAR":0.0017974,"MEAN_MOTION_DOT":0.0000064,"MEAN_MOTION_DDOT":0}]}
